IRIDIUM 921 [-]         
1 24873U 97034E   23250.23763965  .00015353  00000+0  61941-3 0  9990
2 24873  86.3840  66.8240 0003780 240.0929 119.9941 15.24686328432014
IRIDIUM 26 [-]          
1 24903U 97043A   23249.78357308  .00000548  00000+0  18192-3 0  9992
2 24903  86.3993  23.0477 0002331  92.2587 267.8877 14.35982295363985
IRIDIUM 22 [-]          
1 24907U 97043E   23250.31861172  .00000552  00000+0  18742-3 0  9992
2 24907  86.3991  25.8343 0002102  93.4535 266.6902 14.34894310363683
DUMMY MASS 1 [-]        
1 24925U 97048A   23250.49720620  .00000491  00000+0  53237-4 0  9999
2 24925  86.3295  75.0118 0004661 291.9134  68.1594 14.85808226409016
DUMMY MASS 2 [-]        
1 24926U 97048B   23249.94917009  .00000524  00000+0  57431-4 0  9994
2 24926  86.3296  76.7601 0005735 308.1921  51.8786 14.85570215408724
IRIDIUM 29 [-]          
1 24944U 97051A   23249.71443633  .00000484  00000+0  16192-3 0  9993
2 24944  86.3927  56.0931 0001986  96.4269 263.7153 14.35356078360079
IRIDIUM 33 [-]          
1 24946U 97051C   23249.97282594  .00000377  00000+0  12793-3 0  9994
2 24946  86.3845  55.2652 0009313  47.4346 312.7635 14.34099292359681
IRIDIUM 28 [-]          
1 24948U 97051E   23249.97468155  .00000554  00000+0  18316-3 0  9999
2 24948  86.3936  53.8716 0002432  84.6505 275.4969 14.36275329360691
