<?xml version="1.0" encoding="UTF-8"?>
<ndm xmlns:xsi="http://www.w3.org/2001/XMLSchema-instance" xsi:noNamespaceSchemaLocation="https://sanaregistry.org/r/ndmxml_unqualified/ndmxml-2.0.0-master-2.0.xsd">
<omm id="CCSDS_OMM_VERS" version="2.0">
<header><CREATION_DATE/><ORIGINATOR/></header><body><segment><metadata><OBJECT_NAME>IRIDIUM 921 [-]</OBJECT_NAME><OBJECT_ID>1997-034E</OBJECT_ID><CENTER_NAME>EARTH</CENTER_NAME><REF_FRAME>TEME</REF_FRAME><TIME_SYSTEM>UTC</TIME_SYSTEM><MEAN_ELEMENT_THEORY>SGP4</MEAN_ELEMENT_THEORY></metadata><data><meanElements><EPOCH>2023-09-07T05:42:12.065760</EPOCH><MEAN_MOTION>15.24686328</MEAN_MOTION><ECCENTRICITY>.000378</ECCENTRICITY><INCLINATION>86.3840</INCLINATION><RA_OF_ASC_NODE>66.8240</RA_OF_ASC_NODE><ARG_OF_PERICENTER>240.0929</ARG_OF_PERICENTER><MEAN_ANOMALY>119.9941</MEAN_ANOMALY></meanElements><tleParameters><EPHEMERIS_TYPE>0</EPHEMERIS_TYPE><CLASSIFICATION_TYPE>U</CLASSIFICATION_TYPE><NORAD_CAT_ID>24873</NORAD_CAT_ID><ELEMENT_SET_NO>999</ELEMENT_SET_NO><REV_AT_EPOCH>43201</REV_AT_EPOCH><BSTAR>.61941E-3</BSTAR><MEAN_MOTION_DOT>.15353E-3</MEAN_MOTION_DOT><MEAN_MOTION_DDOT>0</MEAN_MOTION_DDOT></tleParameters></data></segment></body></omm>
<omm id="CCSDS_OMM_VERS" version="2.0">
<header><CREATION_DATE/><ORIGINATOR/></header><body><segment><metadata><OBJECT_NAME>IRIDIUM 26 [-]</OBJECT_NAME><OBJECT_ID>1997-043A</OBJECT_ID><CENTER_NAME>EARTH</CENTER_NAME><REF_FRAME>TEME</REF_FRAME><TIME_SYSTEM>UTC</TIME_SYSTEM><MEAN_ELEMENT_THEORY>SGP4</MEAN_ELEMENT_THEORY></metadata><data><meanElements><EPOCH>2023-09-06T18:48:20.714112</EPOCH><MEAN_MOTION>14.35982295</MEAN_MOTION><ECCENTRICITY>.0002331</ECCENTRICITY><INCLINATION>86.3993</INCLINATION><RA_OF_ASC_NODE>23.0477</RA_OF_ASC_NODE><ARG_OF_PERICENTER>92.2587</ARG_OF_PERICENTER><MEAN_ANOMALY>267.8877</MEAN_ANOMALY></meanElements><tleParameters><EPHEMERIS_TYPE>0</EPHEMERIS_TYPE><CLASSIFICATION_TYPE>U</CLASSIFICATION_TYPE><NORAD_CAT_ID>24903</NORAD_CAT_ID><ELEMENT_SET_NO>999</ELEMENT_SET_NO><REV_AT_EPOCH>36398</REV_AT_EPOCH><BSTAR>.18192E-3</BSTAR><MEAN_MOTION_DOT>.548E-5</MEAN_MOTION_DOT><MEAN_MOTION_DDOT>0</MEAN_MOTION_DDOT></tleParameters></data></segment></body></omm>
<omm id="CCSDS_OMM_VERS" version="2.0">
<header><CREATION_DATE/><ORIGINATOR/></header><body><segment><metadata><OBJECT_NAME>IRIDIUM 22 [-]</OBJECT_NAME><OBJECT_ID>1997-043E</OBJECT_ID><CENTER_NAME>EARTH</CENTER_NAME><REF_FRAME>TEME</REF_FRAME><TIME_SYSTEM>UTC</TIME_SYSTEM><MEAN_ELEMENT_THEORY>SGP4</MEAN_ELEMENT_THEORY></metadata><data><meanElements><EPOCH>2023-09-07T07:38:48.052608</EPOCH><MEAN_MOTION>14.34894310</MEAN_MOTION><ECCENTRICITY>.0002102</ECCENTRICITY><INCLINATION>86.3991</INCLINATION><RA_OF_ASC_NODE>25.8343</RA_OF_ASC_NODE><ARG_OF_PERICENTER>93.4535</ARG_OF_PERICENTER><MEAN_ANOMALY>266.6902</MEAN_ANOMALY></meanElements><tleParameters><EPHEMERIS_TYPE>0</EPHEMERIS_TYPE><CLASSIFICATION_TYPE>U</CLASSIFICATION_TYPE><NORAD_CAT_ID>24907</NORAD_CAT_ID><ELEMENT_SET_NO>999</ELEMENT_SET_NO><REV_AT_EPOCH>36368</REV_AT_EPOCH><BSTAR>.18742E-3</BSTAR><MEAN_MOTION_DOT>.552E-5</MEAN_MOTION_DOT><MEAN_MOTION_DDOT>0</MEAN_MOTION_DDOT></tleParameters></data></segment></body></omm>
<omm id="CCSDS_OMM_VERS" version="2.0">
<header><CREATION_DATE/><ORIGINATOR/></header><body><segment><metadata><OBJECT_NAME>DUMMY MASS 1 [-]</OBJECT_NAME><OBJECT_ID>1997-048A</OBJECT_ID><CENTER_NAME>EARTH</CENTER_NAME><REF_FRAME>TEME</REF_FRAME><TIME_SYSTEM>UTC</TIME_SYSTEM><MEAN_ELEMENT_THEORY>SGP4</MEAN_ELEMENT_THEORY></metadata><data><meanElements><EPOCH>2023-09-07T11:55:58.615680</EPOCH><MEAN_MOTION>14.85808226</MEAN_MOTION><ECCENTRICITY>.0004661</ECCENTRICITY><INCLINATION>86.3295</INCLINATION><RA_OF_ASC_NODE>75.0118</RA_OF_ASC_NODE><ARG_OF_PERICENTER>291.9134</ARG_OF_PERICENTER><MEAN_ANOMALY>68.1594</MEAN_ANOMALY></meanElements><tleParameters><EPHEMERIS_TYPE>0</EPHEMERIS_TYPE><CLASSIFICATION_TYPE>U</CLASSIFICATION_TYPE><NORAD_CAT_ID>24925</NORAD_CAT_ID><ELEMENT_SET_NO>999</ELEMENT_SET_NO><REV_AT_EPOCH>40901</REV_AT_EPOCH><BSTAR>.53237E-4</BSTAR><MEAN_MOTION_DOT>.491E-5</MEAN_MOTION_DOT><MEAN_MOTION_DDOT>0</MEAN_MOTION_DDOT></tleParameters></data></segment></body></omm>
<omm id="CCSDS_OMM_VERS" version="2.0">
<header><CREATION_DATE/><ORIGINATOR/></header><body><segment><metadata><OBJECT_NAME>DUMMY MASS 2 [-]</OBJECT_NAME><OBJECT_ID>1997-048B</OBJECT_ID><CENTER_NAME>EARTH</CENTER_NAME><REF_FRAME>TEME</REF_FRAME><TIME_SYSTEM>UTC</TIME_SYSTEM><MEAN_ELEMENT_THEORY>SGP4</MEAN_ELEMENT_THEORY></metadata><data><meanElements><EPOCH>2023-09-06T22:46:48.295776</EPOCH><MEAN_MOTION>14.85570215</MEAN_MOTION><ECCENTRICITY>.0005735</ECCENTRICITY><INCLINATION>86.3296</INCLINATION><RA_OF_ASC_NODE>76.7601</RA_OF_ASC_NODE><ARG_OF_PERICENTER>308.1921</ARG_OF_PERICENTER><MEAN_ANOMALY>51.8786</MEAN_ANOMALY></meanElements><tleParameters><EPHEMERIS_TYPE>0</EPHEMERIS_TYPE><CLASSIFICATION_TYPE>U</CLASSIFICATION_TYPE><NORAD_CAT_ID>24926</NORAD_CAT_ID><ELEMENT_SET_NO>999</ELEMENT_SET_NO><REV_AT_EPOCH>40872</REV_AT_EPOCH><BSTAR>.57431E-4</BSTAR><MEAN_MOTION_DOT>.524E-5</MEAN_MOTION_DOT><MEAN_MOTION_DDOT>0</MEAN_MOTION_DDOT></tleParameters></data></segment></body></omm>
<omm id="CCSDS_OMM_VERS" version="2.0">
<header><CREATION_DATE/><ORIGINATOR/></header><body><segment><metadata><OBJECT_NAME>IRIDIUM 29 [-]</OBJECT_NAME><OBJECT_ID>1997-051A</OBJECT_ID><CENTER_NAME>EARTH</CENTER_NAME><REF_FRAME>TEME</REF_FRAME><TIME_SYSTEM>UTC</TIME_SYSTEM><MEAN_ELEMENT_THEORY>SGP4</MEAN_ELEMENT_THEORY></metadata><data><meanElements><EPOCH>2023-09-06T17:08:47.298912</EPOCH><MEAN_MOTION>14.35356078</MEAN_MOTION><ECCENTRICITY>.0001986</ECCENTRICITY><INCLINATION>86.3927</INCLINATION><RA_OF_ASC_NODE>56.0931</RA_OF_ASC_NODE><ARG_OF_PERICENTER>96.4269</ARG_OF_PERICENTER><MEAN_ANOMALY>263.7153</MEAN_ANOMALY></meanElements><tleParameters><EPHEMERIS_TYPE>0</EPHEMERIS_TYPE><CLASSIFICATION_TYPE>U</CLASSIFICATION_TYPE><NORAD_CAT_ID>24944</NORAD_CAT_ID><ELEMENT_SET_NO>999</ELEMENT_SET_NO><REV_AT_EPOCH>36007</REV_AT_EPOCH><BSTAR>.16192E-3</BSTAR><MEAN_MOTION_DOT>.484E-5</MEAN_MOTION_DOT><MEAN_MOTION_DDOT>0</MEAN_MOTION_DDOT></tleParameters></data></segment></body></omm>
<omm id="CCSDS_OMM_VERS" version="2.0">
<header><CREATION_DATE/><ORIGINATOR/></header><body><segment><metadata><OBJECT_NAME>IRIDIUM 33 [-]</OBJECT_NAME><OBJECT_ID>1997-051C</OBJECT_ID><CENTER_NAME>EARTH</CENTER_NAME><REF_FRAME>TEME</REF_FRAME><TIME_SYSTEM>UTC</TIME_SYSTEM><MEAN_ELEMENT_THEORY>SGP4</MEAN_ELEMENT_THEORY></metadata><data><meanElements><EPOCH>2023-09-06T23:20:52.161216</EPOCH><MEAN_MOTION>14.34099292</MEAN_MOTION><ECCENTRICITY>.0009313</ECCENTRICITY><INCLINATION>86.3845</INCLINATION><RA_OF_ASC_NODE>55.2652</RA_OF_ASC_NODE><ARG_OF_PERICENTER>47.4346</ARG_OF_PERICENTER><MEAN_ANOMALY>312.7635</MEAN_ANOMALY></meanElements><tleParameters><EPHEMERIS_TYPE>0</EPHEMERIS_TYPE><CLASSIFICATION_TYPE>U</CLASSIFICATION_TYPE><NORAD_CAT_ID>24946</NORAD_CAT_ID><ELEMENT_SET_NO>999</ELEMENT_SET_NO><REV_AT_EPOCH>35968</REV_AT_EPOCH><BSTAR>.12793E-3</BSTAR><MEAN_MOTION_DOT>.377E-5</MEAN_MOTION_DOT><MEAN_MOTION_DDOT>0</MEAN_MOTION_DDOT></tleParameters></data></segment></body></omm>
<omm id="CCSDS_OMM_VERS" version="2.0">
<header><CREATION_DATE/><ORIGINATOR/></header><body><segment><metadata><OBJECT_NAME>IRIDIUM 28 [-]</OBJECT_NAME><OBJECT_ID>1997-051E</OBJECT_ID><CENTER_NAME>EARTH</CENTER_NAME><REF_FRAME>TEME</REF_FRAME><TIME_SYSTEM>UTC</TIME_SYSTEM><MEAN_ELEMENT_THEORY>SGP4</MEAN_ELEMENT_THEORY></metadata><data><meanElements><EPOCH>2023-09-06T23:23:32.485920</EPOCH><MEAN_MOTION>14.36275329</MEAN_MOTION><ECCENTRICITY>.0002432</ECCENTRICITY><INCLINATION>86.3936</INCLINATION><RA_OF_ASC_NODE>53.8716</RA_OF_ASC_NODE><ARG_OF_PERICENTER>84.6505</ARG_OF_PERICENTER><MEAN_ANOMALY>275.4969</MEAN_ANOMALY></meanElements><tleParameters><EPHEMERIS_TYPE>0</EPHEMERIS_TYPE><CLASSIFICATION_TYPE>U</CLASSIFICATION_TYPE><NORAD_CAT_ID>24948</NORAD_CAT_ID><ELEMENT_SET_NO>999</ELEMENT_SET_NO><REV_AT_EPOCH>36069</REV_AT_EPOCH><BSTAR>.18316E-3</BSTAR><MEAN_MOTION_DOT>.554E-5</MEAN_MOTION_DOT><MEAN_MOTION_DDOT>0</MEAN_MOTION_DDOT></tleParameters></data></segment></body></omm>

</ndm>
